STARLINK-36649          
1 67837U 26033S   26068.93561353  .00546427  00000+0  24178-2 0  9993
2 67837  42.9974 269.8571 0001642 282.2909  77.7779 15.82188260  4662
STARLINK-36654          
1 67838U 26033T   26068.93485654  .00234090  00000+0  10809-2 0  9999
2 67838  42.9977 269.8507 0002314 255.4643 104.5972 15.82085137  4662
STARLINK-36652          
1 67839U 26033U   26068.93411156  .00339222  00000+0  15428-2 0  9991
2 67839  42.9980 269.8447 0002107 260.7607  99.3026 15.82132001  4663
STARLINK-36651          
1 67840U 26033V   26068.93336229  .00394660  00000+0  17819-2 0  9993
2 67840  42.9980 269.8380 0002108 262.4734  97.5898 15.82145228  4664
STARLINK-36656          
1 67841U 26033W   26068.93261496  .00466464  00000+0  20860-2 0  9999
2 67841  42.9979 269.8321 0001763 290.5518  69.5164 15.82165317  4662
STARLINK-36653          
1 67842U 26033X   26068.93186897  .00429158  00000+0  19302-2 0  9999
2 67842  42.9980 269.8261 0001531 294.8376  65.2336 15.82138429  4668
STARLINK-36589          
1 67843U 26033Y   26068.93111525  .00317905  00000+0  14503-2 0  9990
2 67843  42.9976 269.8202 0001909 260.8661  99.1995 15.82121976  4664
STARLINK-36598          
1 67844U 26033Z   26068.93036773  .00331375  00000+0  15092-2 0  9993
2 67844  42.9981 269.8150 0001975 280.8839  79.1810 15.82123576  4667
STARLINK-36606          
1 67845U 26033AA  26068.92962606  .00481643  00000+0  21531-2 0  9995
2 67845  42.9978 269.8070 0001334 333.7804  26.3000 15.82133261  4661
STARLINK-36658          
1 67846U 26033AB  26068.92886751  .00259878  00000+0  11955-2 0  9994
2 67846  42.9979 269.8021 0002336 277.7217  82.3389 15.82095700  4664
STARLINK-36618          
1 67847U 26033AC  26068.91668981  .00022943  85583-5  76122-4 0  9992
2 67847  42.9823 267.6358 0002278 281.7419 172.2277 15.91507749  4707
STARLINK-36660          
1 67848U 26033AD  26068.92812598  .00588643  00000+0  25923-2 0  9999
2 67848  42.9975 269.7949 0002122 306.3567  53.7109 15.82182214  4669
