CCSDS_OMM_VERS = 2.0
CREATION_DATE  = 
ORIGINATOR     = 

OBJECT_NAME    = STARLINK-36649
OBJECT_ID      = 2026-033S
CENTER_NAME    = EARTH
REF_FRAME      = TEME
TIME_SYSTEM    = UTC
MEAN_ELEMENT_THEORY = SGP/SGP4

EPOCH          = 2026-03-09T22:27:17.008992
MEAN_MOTION    = 15.82188260
ECCENTRICITY   = .00016426
INCLINATION    = 42.9974
RA_OF_ASC_NODE = 269.8571
ARG_OF_PERICENTER = 282.2909
MEAN_ANOMALY   = 77.7779

EPHEMERIS_TYPE = 0
CLASSIFICATION_TYPE = U
NORAD_CAT_ID   = 67837
ELEMENT_SET_NO = 999
REV_AT_EPOCH   = 466
BSTAR          = .24177604E-2
MEAN_MOTION_DOT = .546427E-2
MEAN_MOTION_DDOT = 0

CCSDS_OMM_VERS = 2.0
CREATION_DATE  = 
ORIGINATOR     = 

OBJECT_NAME    = STARLINK-36654
OBJECT_ID      = 2026-033T
CENTER_NAME    = EARTH
REF_FRAME      = TEME
TIME_SYSTEM    = UTC
MEAN_ELEMENT_THEORY = SGP/SGP4

EPOCH          = 2026-03-09T22:26:11.605056
MEAN_MOTION    = 15.82085137
ECCENTRICITY   = .00023144
INCLINATION    = 42.9977
RA_OF_ASC_NODE = 269.8507
ARG_OF_PERICENTER = 255.4643
MEAN_ANOMALY   = 104.5972

EPHEMERIS_TYPE = 0
CLASSIFICATION_TYPE = U
NORAD_CAT_ID   = 67838
ELEMENT_SET_NO = 999
REV_AT_EPOCH   = 466
BSTAR          = .10808988E-2
MEAN_MOTION_DOT = .23409E-2
MEAN_MOTION_DDOT = 0

CCSDS_OMM_VERS = 2.0
CREATION_DATE  = 
ORIGINATOR     = 

OBJECT_NAME    = STARLINK-36652
OBJECT_ID      = 2026-033U
CENTER_NAME    = EARTH
REF_FRAME      = TEME
TIME_SYSTEM    = UTC
MEAN_ELEMENT_THEORY = SGP/SGP4

EPOCH          = 2026-03-09T22:25:07.238784
MEAN_MOTION    = 15.82132001
ECCENTRICITY   = .00021076
INCLINATION    = 42.9980
RA_OF_ASC_NODE = 269.8447
ARG_OF_PERICENTER = 260.7607
MEAN_ANOMALY   = 99.3026

EPHEMERIS_TYPE = 0
CLASSIFICATION_TYPE = U
NORAD_CAT_ID   = 67839
ELEMENT_SET_NO = 999
REV_AT_EPOCH   = 466
BSTAR          = .15428253E-2
MEAN_MOTION_DOT = .339222E-2
MEAN_MOTION_DDOT = 0

CCSDS_OMM_VERS = 2.0
CREATION_DATE  = 
ORIGINATOR     = 

OBJECT_NAME    = STARLINK-36651
OBJECT_ID      = 2026-033V
CENTER_NAME    = EARTH
REF_FRAME      = TEME
TIME_SYSTEM    = UTC
MEAN_ELEMENT_THEORY = SGP/SGP4

EPOCH          = 2026-03-09T22:24:02.501856
MEAN_MOTION    = 15.82145228
ECCENTRICITY   = .00021081
INCLINATION    = 42.9980
RA_OF_ASC_NODE = 269.8380
ARG_OF_PERICENTER = 262.4734
MEAN_ANOMALY   = 97.5898

EPHEMERIS_TYPE = 0
CLASSIFICATION_TYPE = U
NORAD_CAT_ID   = 67840
ELEMENT_SET_NO = 999
REV_AT_EPOCH   = 466
BSTAR          = .17818753E-2
MEAN_MOTION_DOT = .39466E-2
MEAN_MOTION_DDOT = 0

CCSDS_OMM_VERS = 2.0
CREATION_DATE  = 
ORIGINATOR     = 

OBJECT_NAME    = STARLINK-36656
OBJECT_ID      = 2026-033W
CENTER_NAME    = EARTH
REF_FRAME      = TEME
TIME_SYSTEM    = UTC
MEAN_ELEMENT_THEORY = SGP/SGP4

EPOCH          = 2026-03-09T22:22:57.932544
MEAN_MOTION    = 15.82165317
ECCENTRICITY   = .00017632
INCLINATION    = 42.9979
RA_OF_ASC_NODE = 269.8321
ARG_OF_PERICENTER = 290.5518
MEAN_ANOMALY   = 69.5164

EPHEMERIS_TYPE = 0
CLASSIFICATION_TYPE = U
NORAD_CAT_ID   = 67841
ELEMENT_SET_NO = 999
REV_AT_EPOCH   = 466
BSTAR          = .20860225E-2
MEAN_MOTION_DOT = .466464E-2
MEAN_MOTION_DDOT = 0

CCSDS_OMM_VERS = 2.0
CREATION_DATE  = 
ORIGINATOR     = 

OBJECT_NAME    = STARLINK-36653
OBJECT_ID      = 2026-033X
CENTER_NAME    = EARTH
REF_FRAME      = TEME
TIME_SYSTEM    = UTC
MEAN_ELEMENT_THEORY = SGP/SGP4

EPOCH          = 2026-03-09T22:21:53.479008
MEAN_MOTION    = 15.82138429
ECCENTRICITY   = .00015311
INCLINATION    = 42.9980
RA_OF_ASC_NODE = 269.8261
ARG_OF_PERICENTER = 294.8376
MEAN_ANOMALY   = 65.2336

EPHEMERIS_TYPE = 0
CLASSIFICATION_TYPE = U
NORAD_CAT_ID   = 67842
ELEMENT_SET_NO = 999
REV_AT_EPOCH   = 466
BSTAR          = .19301972E-2
MEAN_MOTION_DOT = .429158E-2
MEAN_MOTION_DDOT = 0

CCSDS_OMM_VERS = 2.0
CREATION_DATE  = 
ORIGINATOR     = 

OBJECT_NAME    = STARLINK-36589
OBJECT_ID      = 2026-033Y
CENTER_NAME    = EARTH
REF_FRAME      = TEME
TIME_SYSTEM    = UTC
MEAN_ELEMENT_THEORY = SGP/SGP4

EPOCH          = 2026-03-09T22:20:48.357600
MEAN_MOTION    = 15.82121976
ECCENTRICITY   = .00019098
INCLINATION    = 42.9976
RA_OF_ASC_NODE = 269.8202
ARG_OF_PERICENTER = 260.8661
MEAN_ANOMALY   = 99.1995

EPHEMERIS_TYPE = 0
CLASSIFICATION_TYPE = U
NORAD_CAT_ID   = 67843
ELEMENT_SET_NO = 999
REV_AT_EPOCH   = 466
BSTAR          = .14503096E-2
MEAN_MOTION_DOT = .317905E-2
MEAN_MOTION_DDOT = 0

CCSDS_OMM_VERS = 2.0
CREATION_DATE  = 
ORIGINATOR     = 

OBJECT_NAME    = STARLINK-36598
OBJECT_ID      = 2026-033Z
CENTER_NAME    = EARTH
REF_FRAME      = TEME
TIME_SYSTEM    = UTC
MEAN_ELEMENT_THEORY = SGP/SGP4

EPOCH          = 2026-03-09T22:19:43.771872
MEAN_MOTION    = 15.82123576
ECCENTRICITY   = .00019759
INCLINATION    = 42.9981
RA_OF_ASC_NODE = 269.8150
ARG_OF_PERICENTER = 280.8839
MEAN_ANOMALY   = 79.1810

EPHEMERIS_TYPE = 0
CLASSIFICATION_TYPE = U
NORAD_CAT_ID   = 67844
ELEMENT_SET_NO = 999
REV_AT_EPOCH   = 466
BSTAR          = .1509169E-2
MEAN_MOTION_DOT = .331375E-2
MEAN_MOTION_DDOT = 0

CCSDS_OMM_VERS = 2.0
CREATION_DATE  = 
ORIGINATOR     = 

OBJECT_NAME    = STARLINK-36606
OBJECT_ID      = 2026-033AA
CENTER_NAME    = EARTH
REF_FRAME      = TEME
TIME_SYSTEM    = UTC
MEAN_ELEMENT_THEORY = SGP/SGP4

EPOCH          = 2026-03-09T22:18:39.691584
MEAN_MOTION    = 15.82133261
ECCENTRICITY   = .00013342
INCLINATION    = 42.9978
RA_OF_ASC_NODE = 269.8070
ARG_OF_PERICENTER = 333.7804
MEAN_ANOMALY   = 26.3000

EPHEMERIS_TYPE = 0
CLASSIFICATION_TYPE = U
NORAD_CAT_ID   = 67845
ELEMENT_SET_NO = 999
REV_AT_EPOCH   = 466
BSTAR          = .21531471E-2
MEAN_MOTION_DOT = .481643E-2
MEAN_MOTION_DDOT = 0

CCSDS_OMM_VERS = 2.0
CREATION_DATE  = 
ORIGINATOR     = 

OBJECT_NAME    = STARLINK-36658
OBJECT_ID      = 2026-033AB
CENTER_NAME    = EARTH
REF_FRAME      = TEME
TIME_SYSTEM    = UTC
MEAN_ELEMENT_THEORY = SGP/SGP4

EPOCH          = 2026-03-09T22:17:34.152864
MEAN_MOTION    = 15.82095700
ECCENTRICITY   = .00023368
INCLINATION    = 42.9979
RA_OF_ASC_NODE = 269.8021
ARG_OF_PERICENTER = 277.7217
MEAN_ANOMALY   = 82.3389

EPHEMERIS_TYPE = 0
CLASSIFICATION_TYPE = U
NORAD_CAT_ID   = 67846
ELEMENT_SET_NO = 999
REV_AT_EPOCH   = 466
BSTAR          = .11955198E-2
MEAN_MOTION_DOT = .259878E-2
MEAN_MOTION_DDOT = 0

CCSDS_OMM_VERS = 2.0
CREATION_DATE  = 
ORIGINATOR     = 

OBJECT_NAME    = STARLINK-36618
OBJECT_ID      = 2026-033AC
CENTER_NAME    = EARTH
REF_FRAME      = TEME
TIME_SYSTEM    = UTC
MEAN_ELEMENT_THEORY = SGP/SGP4

EPOCH          = 2026-03-09T22:00:01.999584
MEAN_MOTION    = 15.91507749
ECCENTRICITY   = .00022783
INCLINATION    = 42.9823
RA_OF_ASC_NODE = 267.6358
ARG_OF_PERICENTER = 281.7419
MEAN_ANOMALY   = 172.2277

EPHEMERIS_TYPE = 0
CLASSIFICATION_TYPE = U
NORAD_CAT_ID   = 67847
ELEMENT_SET_NO = 999
REV_AT_EPOCH   = 470
BSTAR          = .76122339E-4
MEAN_MOTION_DOT = .22943E-3
MEAN_MOTION_DDOT = .8558314E-5

CCSDS_OMM_VERS = 2.0
CREATION_DATE  = 
ORIGINATOR     = 

OBJECT_NAME    = STARLINK-36660
OBJECT_ID      = 2026-033AD
CENTER_NAME    = EARTH
REF_FRAME      = TEME
TIME_SYSTEM    = UTC
MEAN_ELEMENT_THEORY = SGP/SGP4

EPOCH          = 2026-03-09T22:16:30.084672
MEAN_MOTION    = 15.82182214
ECCENTRICITY   = .00021228
INCLINATION    = 42.9975
RA_OF_ASC_NODE = 269.7949
ARG_OF_PERICENTER = 306.3567
MEAN_ANOMALY   = 53.7109

EPHEMERIS_TYPE = 0
CLASSIFICATION_TYPE = U
NORAD_CAT_ID   = 67848
ELEMENT_SET_NO = 999
REV_AT_EPOCH   = 466
BSTAR          = .25923038E-2
MEAN_MOTION_DOT = .588643E-2
MEAN_MOTION_DDOT = 0

